H1 CPF  1  HTS 2022  8 18 12  7301 larets           NONE
H2  0304206 5557    27944 2022 08 18  0  0  0 2022 08 23  0  0  0   180 1 1  0 0 0
H5  0.0560 
H9 
10 0 59812  82440.00000  0    4545630.667    4586791.541    2840550.775
10 0 59812  82620.00000  0    4284469.685    3916698.021    4003601.817
10 0 59812  82800.00000  0    3847501.894    3112735.754    5019383.022
10 0 59812  82980.00000  0    3247617.727    2208712.712    5850534.981
10 0 59812  83160.00000  0    2504607.971    1241675.906    6466534.215
10 0 59812  83340.00000  0    1644479.796     250359.472    6844798.427
10 0 59812  83520.00000  0     698516.094    -726388.062    6971490.130
10 0 59812  83700.00000  0    -297887.063   -1651140.477    6842005.299
10 0 59812  83880.00000  0   -1306564.372   -2489343.094    6461128.728
10 0 59812  84060.00000  0   -2288055.108   -3210616.921    5842854.216
10 0 59812  84240.00000  0   -3203154.593   -3789875.751    5009888.647
10 0 59812  84420.00000  0   -4014506.411   -4208225.936    3992841.990
10 0 59812  84600.00000  0   -4688158.993   -4453603.621    2829107.201
10 0 59812  84780.00000  0   -5195011.954   -4521124.598    1561476.724
10 0 59812  84960.00000  0   -5512091.026   -4413130.599     236539.356
10 0 59812  85140.00000  0   -5623582.352   -4138923.564   -1097079.775
10 0 59812  85320.00000  0   -5521571.223   -3714203.378   -2390558.620
10 0 59812  85500.00000  0   -5206442.712   -3160237.710   -3596710.542
10 0 59812  85680.00000  0   -4686932.680   -2502818.161   -4671719.165
10 0 59812  85860.00000  0   -3979840.954   -1771064.037   -5576709.511
10 0 59812  86040.00000  0   -3109428.848    -996135.911   -6279101.485
10 0 59812  86220.00000  0   -2106538.908    -209919.613   -6753706.959
10 0 59813      0.00000  0   -1007479.129     556260.903   -6983549.723
10 0 59813    180.00000  0     147280.027    1272853.853   -6960402.179
10 0 59813    360.00000  0    1314553.900    1913181.247   -6685046.667
10 0 59813    540.00000  0    2450008.265    2454404.366   -6167263.263
10 0 59813    720.00000  0    3509802.089    2878328.621   -5425529.854
10 0 59813    900.00000  0    4452254.203    3172020.348   -4486436.584
10 0 59813   1080.00000  0    5239488.273    3328218.194   -3383819.555
10 0 59813   1260.00000  0    5838990.419    3345516.843   -2157613.672
10 0 59813   1440.00000  0    6225007.276    3228311.369    -852451.878
10 0 59813   1620.00000  0    6379711.884    2986492.658     483952.523
10 0 59813   1800.00000  0    6294066.588    2634900.186    1802577.629
10 0 59813   1980.00000  0    5968328.438    2192558.944    3054941.520
10 0 59813   2160.00000  0    5412164.028    1681738.094    4194947.786
10 0 59813   2340.00000  0    4644358.362    1126877.193    5180637.061
10 0 59813   2520.00000  0    3692140.444     553440.778    5975761.605
10 0 59813   2700.00000  0    2590160.522     -13240.249    6551127.067
10 0 59813   2880.00000  0    1379172.730    -549080.200    6885646.076
10 0 59813   3060.00000  0     104487.501   -1032258.221    6967089.998
10 0 59813   3240.00000  0   -1185756.233   -1444108.774    6792515.720
10 0 59813   3420.00000  0   -2442428.538   -1769847.662    6368357.857
10 0 59813   3600.00000  0   -3617290.635   -1999106.134    5710195.649
10 0 59813   3780.00000  0   -4664872.218   -2126262.226    4842205.981
10 0 59813   3960.00000  0   -5544275.072   -2150559.093    3796291.175
10 0 59813   4140.00000  0   -6220816.741   -2075998.122    2610908.766
10 0 59813   4320.00000  0   -6667446.514   -1911015.181    1329648.265
10 0 59813   4500.00000  0   -6865870.090   -1667957.363       -405.694
10 0 59813   4680.00000  0   -6807310.928   -1362380.480   -1330456.724
10 0 59813   4860.00000  0   -6492870.745   -1012207.237   -2611840.315
10 0 59813   5040.00000  0   -5933475.643    -636795.932   -3797841.339
10 0 59813   5220.00000  0   -5149422.042    -255968.441   -4845407.488
10 0 59813   5400.00000  0   -4169554.798     110954.926   -5716687.601
10 0 59813   5580.00000  0   -3030129.613     446062.365   -6380341.529
10 0 59813   5760.00000  0   -1773422.948     733659.244   -6812585.104
10 0 59813   5940.00000  0    -446156.016     960947.872   -6997960.098
10 0 59813   6120.00000  0     902212.447    1118558.753   -6929822.805
10 0 59813   6300.00000  0    2221272.779    1200917.831   -6610559.452
10 0 59813   6480.00000  0    3461497.028    1206441.702   -6051523.019
10 0 59813   6660.00000  0    4576060.127    1137553.481   -5272679.443
10 0 59813   6840.00000  0    5522596.560    1000517.359   -4301973.255
10 0 59813   7020.00000  0    6264840.958     805096.924   -3174409.644
10 0 59813   7200.00000  0    6774081.051     564045.073   -1930862.452
10 0 59813   7380.00000  0    7030356.838     292444.345    -616632.961
10 0 59813   7560.00000  0    7023330.821       6924.543     720200.962
10 0 59813   7740.00000  0    6752774.281    -275203.502    2030575.278
10 0 59813   7920.00000  0    6228635.066    -536856.032    3266297.049
10 0 59813   8100.00000  0    5470668.699    -762075.910    4381879.763
10 0 59813   8280.00000  0    4507657.586    -936873.820    5336265.833
10 0 59813   8460.00000  0    3376259.241   -1049968.202    6094366.107
10 0 59813   8640.00000  0    2119545.119   -1093383.213    6628351.226
10 0 59813   8820.00000  0     785305.656   -1062882.251    6918657.493
10 0 59813   9000.00000  0    -575810.903    -958217.540    6954681.178
10 0 59813   9180.00000  0   -1912249.039    -783184.981    6735142.056
10 0 59813   9360.00000  0   -3173513.342    -545483.211    6268119.728
10 0 59813   9540.00000  0   -4312093.119    -256380.804    5570767.826
10 0 59813   9720.00000  0   -5285286.340      69794.871    4668705.712
10 0 59813   9900.00000  0   -6056849.686     416327.815    3595091.744
10 0 59813  10080.00000  0   -6598401.209     764915.600    2389405.931
10 0 59813  10260.00000  0   -6890515.411    1096568.045    1095983.083
10 0 59813  10440.00000  0   -6923456.467    1392556.627    -237655.091
10 0 59813  10620.00000  0   -6697505.055    1635365.745   -1562599.880
10 0 59813  10800.00000  0   -6222861.414    1809594.072   -2830399.470
10 0 59813  10980.00000  0   -5519141.133    1902762.440   -3994865.901
10 0 59813  11160.00000  0   -4614489.363    1905983.645   -5013765.461
10 0 59813  11340.00000  0   -3544376.222    1814463.589   -5850316.289
10 0 59813  11520.00000  0   -2350148.622    1627817.333   -6474449.237
10 0 59813  11700.00000  0   -1077407.683    1350191.063   -6863808.490
10 0 59813  11880.00000  0     225723.994     990188.934   -7004470.849
10 0 59813  12060.00000  0    1510377.098     560611.407   -6891385.927
10 0 59813  12240.00000  0    2728713.802      78012.771   -6528544.577
10 0 59813  12420.00000  0    3835663.302    -437913.583   -5928860.288
10 0 59813  12600.00000  0    4790561.615    -965104.149   -5113765.805
10 0 59813  12780.00000  0    5558651.785   -1480028.953   -4112530.359
10 0 59813  12960.00000  0    6112395.930   -1958702.270   -2961292.863
10 0 59813  13140.00000  0    6432536.675   -2377760.751   -1701822.376
10 0 59813  13320.00000  0    6508851.452   -2715561.975    -380034.997
10 0 59813  13500.00000  0    6340551.953   -2953247.568     955683.877
10 0 59813  13680.00000  0    5936297.476   -3075714.170    2256288.465
10 0 59813  13860.00000  0    5313806.197   -3072436.676    3473934.027
10 0 59813  14040.00000  0    4499079.033   -2938094.790    4563797.202
10 0 59813  14220.00000  0    3525284.112   -2672968.871    5485770.233
10 0 59813  14400.00000  0    2431357.753   -2283089.266    6205962.873
10 0 59813  14580.00000  0    1260393.237   -1780127.265    6697946.331
10 0 59813  14760.00000  0      57899.186   -1181039.426    6943703.951
10 0 59813  14940.00000  0   -1130000.089    -507479.414    6934265.124
10 0 59813  15120.00000  0   -2258350.573     214999.632    6670012.969
10 0 59813  15300.00000  0   -3285082.215     957924.829    6160665.614
10 0 59813  15480.00000  0   -4172596.085    1691032.468    5424931.347
10 0 59813  15660.00000  0   -4889173.251    2383506.567    4489842.210
10 0 59813  15840.00000  0   -5410150.288    3005282.493    3389774.359
10 0 59813  16020.00000  0   -5718806.126    3528357.907    2165182.684
10 0 59813  16200.00000  0   -5806924.117    3928051.963     861094.781
10 0 59813  16380.00000  0   -5674997.730    4184149.563    -474586.984
10 0 59813  16560.00000  0   -5332065.596    4281866.494   -1792897.313
10 0 59813  16740.00000  0   -4795188.998    4212589.015   -3045655.059
10 0 59813  16920.00000  0   -4088596.307    3974345.385   -4187258.168
10 0 59813  17100.00000  0   -3242553.006    3571992.637   -5176339.831
10 0 59813  17280.00000  0   -2292028.875    3017122.168   -5977223.520
10 0 59813  17460.00000  0   -1275235.024    2327699.955   -6561140.749
10 0 59813  17640.00000  0    -232089.186    1527459.105   -6907183.954
10 0 59813  17820.00000  0     797324.094     645076.161   -7002977.479
10 0 59813  18000.00000  0    1774250.141    -286838.424   -6845072.474
10 0 59813  18180.00000  0    2662681.516   -1232911.690   -6439059.796
10 0 59813  18360.00000  0    3430652.102   -2156308.067   -5799399.421
10 0 59813  18540.00000  0    4051378.024   -3020124.042   -4948971.893
10 0 59813  18720.00000  0    4504212.589   -3788845.669   -3918343.590
10 0 59813  18900.00000  0    4775370.313   -4429809.274   -2744747.122
10 0 59813  19080.00000  0    4858394.412   -4914607.420   -1470799.570
10 0 59813  19260.00000  0    4754335.419   -5220376.177    -142982.065
10 0 59813  19440.00000  0    4471615.985   -5330890.982    1190069.177
10 0 59813  19620.00000  0    4025581.387   -5237403.480    2479389.064
10 0 59813  19800.00000  0    3437750.873   -4939167.476    3677542.491
10 0 59813  19980.00000  0    2734809.943   -4443625.475    4740426.818
10 0 59813  20160.00000  0    1947397.803   -3766242.056    5628937.750
10 0 59813  20340.00000  0    1108754.486   -2929995.815    6310427.538
99
